CCSDS_OMM_VERS = 2.0
CREATION_DATE  = 
ORIGINATOR     = 

OBJECT_NAME    = SL-16 R/B
OBJECT_ID      = 1998-043G
CENTER_NAME    = EARTH
REF_FRAME      = TEME
TIME_SYSTEM    = UTC
MEAN_ELEMENT_THEORY = SGP/SGP4

EPOCH          = 2025-12-11T21:16:11.461728
MEAN_MOTION    = 14.26025309
ECCENTRICITY   = .0008793
INCLINATION    = 98.8123
RA_OF_ASC_NODE = 293.6995
ARG_OF_PERICENTER = 269.5518
MEAN_ANOMALY   = 90.4654

EPHEMERIS_TYPE = 0
CLASSIFICATION_TYPE = U
NORAD_CAT_ID   = 25400
ELEMENT_SET_NO = 999
REV_AT_EPOCH   = 42647
BSTAR          = .80397E-4
MEAN_MOTION_DOT = .147E-5
MEAN_MOTION_DDOT = 0

CCSDS_OMM_VERS = 2.0
CREATION_DATE  = 
ORIGINATOR     = 

OBJECT_NAME    = SL-16 R/B
OBJECT_ID      = 1998-045B
CENTER_NAME    = EARTH
REF_FRAME      = TEME
TIME_SYSTEM    = UTC
MEAN_ELEMENT_THEORY = SGP/SGP4

EPOCH          = 2025-12-12T03:05:45.847968
MEAN_MOTION    = 14.16175201
ECCENTRICITY   = .0006967
INCLINATION    = 71.0118
RA_OF_ASC_NODE = 5.7116
ARG_OF_PERICENTER = 178.6612
MEAN_ANOMALY   = 181.4531

EPHEMERIS_TYPE = 0
CLASSIFICATION_TYPE = U
NORAD_CAT_ID   = 25407
ELEMENT_SET_NO = 999
REV_AT_EPOCH   = 41470
BSTAR          = -.7159E-4
MEAN_MOTION_DOT = -.189E-5
MEAN_MOTION_DDOT = 0

CCSDS_OMM_VERS = 2.0
CREATION_DATE  = 
ORIGINATOR     = 

OBJECT_NAME    = ISS (ZARYA)
OBJECT_ID      = 1998-067A
CENTER_NAME    = EARTH
REF_FRAME      = TEME
TIME_SYSTEM    = UTC
MEAN_ELEMENT_THEORY = SGP/SGP4

EPOCH          = 2025-12-11T21:30:28.324224
MEAN_MOTION    = 15.49521399
ECCENTRICITY   = .0003298
INCLINATION    = 51.6307
RA_OF_ASC_NODE = 146.6565
ARG_OF_PERICENTER = 237.1442
MEAN_ANOMALY   = 122.9229

EPHEMERIS_TYPE = 0
CLASSIFICATION_TYPE = U
NORAD_CAT_ID   = 25544
ELEMENT_SET_NO = 999
REV_AT_EPOCH   = 54272
BSTAR          = .26381E-3
MEAN_MOTION_DOT = .14378E-3
MEAN_MOTION_DDOT = 0

CCSDS_OMM_VERS = 2.0
CREATION_DATE  = 
ORIGINATOR     = 

OBJECT_NAME    = CZ-4B R/B
OBJECT_ID      = 1999-025C
CENTER_NAME    = EARTH
REF_FRAME      = TEME
TIME_SYSTEM    = UTC
MEAN_ELEMENT_THEORY = SGP/SGP4

EPOCH          = 2025-12-12T02:42:13.501728
MEAN_MOTION    = 14.18243385
ECCENTRICITY   = .0036262
INCLINATION    = 98.6770
RA_OF_ASC_NODE = 27.4067
ARG_OF_PERICENTER = 235.8475
MEAN_ANOMALY   = 177.1852

EPHEMERIS_TYPE = 0
CLASSIFICATION_TYPE = U
NORAD_CAT_ID   = 25732
ELEMENT_SET_NO = 999
REV_AT_EPOCH   = 37575
BSTAR          = .83489E-4
MEAN_MOTION_DOT = .129E-5
MEAN_MOTION_DDOT = 0

CCSDS_OMM_VERS = 2.0
CREATION_DATE  = 
ORIGINATOR     = 

OBJECT_NAME    = OKEAN-O
OBJECT_ID      = 1999-039A
CENTER_NAME    = EARTH
REF_FRAME      = TEME
TIME_SYSTEM    = UTC
MEAN_ELEMENT_THEORY = SGP/SGP4

EPOCH          = 2025-12-12T04:20:52.369152
MEAN_MOTION    = 14.80160086
ECCENTRICITY   = .0000826
INCLINATION    = 97.9603
RA_OF_ASC_NODE = 41.8876
ARG_OF_PERICENTER = 97.1754
MEAN_ANOMALY   = 262.9551

EPHEMERIS_TYPE = 0
CLASSIFICATION_TYPE = U
NORAD_CAT_ID   = 25860
ELEMENT_SET_NO = 999
REV_AT_EPOCH   = 42144
BSTAR          = .17012E-3
MEAN_MOTION_DOT = .1239E-4
MEAN_MOTION_DDOT = 0

CCSDS_OMM_VERS = 2.0
CREATION_DATE  = 
ORIGINATOR     = 

OBJECT_NAME    = SL-16 R/B
OBJECT_ID      = 1999-039B
CENTER_NAME    = EARTH
REF_FRAME      = TEME
TIME_SYSTEM    = UTC
MEAN_ELEMENT_THEORY = SGP/SGP4

EPOCH          = 2025-12-12T04:14:33.817056
MEAN_MOTION    = 14.81585442
ECCENTRICITY   = .0014876
INCLINATION    = 98.0127
RA_OF_ASC_NODE = 40.3279
ARG_OF_PERICENTER = 176.4520
MEAN_ANOMALY   = 183.6801

EPHEMERIS_TYPE = 0
CLASSIFICATION_TYPE = U
NORAD_CAT_ID   = 25861
ELEMENT_SET_NO = 999
REV_AT_EPOCH   = 42390
BSTAR          = .13526E-3
MEAN_MOTION_DOT = .101E-4
MEAN_MOTION_DDOT = 0

CCSDS_OMM_VERS = 2.0
CREATION_DATE  = 
ORIGINATOR     = 

OBJECT_NAME    = DELTA 2 R/B
OBJECT_ID      = 1999-041E
CENTER_NAME    = EARTH
REF_FRAME      = TEME
TIME_SYSTEM    = UTC
MEAN_ELEMENT_THEORY = SGP/SGP4

EPOCH          = 2025-12-12T03:31:55.523424
MEAN_MOTION    = 14.11398419
ECCENTRICITY   = .050471
INCLINATION    = 51.7613
RA_OF_ASC_NODE = 290.8113
ARG_OF_PERICENTER = 90.0188
MEAN_ANOMALY   = 275.8556

EPHEMERIS_TYPE = 0
CLASSIFICATION_TYPE = U
NORAD_CAT_ID   = 25876
ELEMENT_SET_NO = 999
REV_AT_EPOCH   = 35066
BSTAR          = .34115E-3
MEAN_MOTION_DOT = .1876E-4
MEAN_MOTION_DDOT = 0

CCSDS_OMM_VERS = 2.0
CREATION_DATE  = 
ORIGINATOR     = 

OBJECT_NAME    = HELIOS 1B
OBJECT_ID      = 1999-064A
CENTER_NAME    = EARTH
REF_FRAME      = TEME
TIME_SYSTEM    = UTC
MEAN_ELEMENT_THEORY = SGP/SGP4

EPOCH          = 2025-12-12T03:08:13.204032
MEAN_MOTION    = 14.87279074
ECCENTRICITY   = .0001728
INCLINATION    = 98.1752
RA_OF_ASC_NODE = 240.7782
ARG_OF_PERICENTER = 43.6286
MEAN_ANOMALY   = 316.5065

EPHEMERIS_TYPE = 0
CLASSIFICATION_TYPE = U
NORAD_CAT_ID   = 25977
ELEMENT_SET_NO = 999
REV_AT_EPOCH   = 67224
BSTAR          = .40267E-3
MEAN_MOTION_DOT = .3573E-4
MEAN_MOTION_DDOT = 0

CCSDS_OMM_VERS = 2.0
CREATION_DATE  = 
ORIGINATOR     = 

OBJECT_NAME    = TERRA
OBJECT_ID      = 1999-068A
CENTER_NAME    = EARTH
REF_FRAME      = TEME
TIME_SYSTEM    = UTC
MEAN_ELEMENT_THEORY = SGP/SGP4

EPOCH          = 2025-12-12T02:47:03.105888
MEAN_MOTION    = 14.60900844
ECCENTRICITY   = .0003602
INCLINATION    = 97.9750
RA_OF_ASC_NODE = 37.8234
ARG_OF_PERICENTER = 95.7408
MEAN_ANOMALY   = 316.4628

EPHEMERIS_TYPE = 0
CLASSIFICATION_TYPE = U
NORAD_CAT_ID   = 25994
ELEMENT_SET_NO = 999
REV_AT_EPOCH   = 38229
BSTAR          = .16866E-3
MEAN_MOTION_DOT = .781E-5
MEAN_MOTION_DDOT = 0

CCSDS_OMM_VERS = 2.0
CREATION_DATE  = 
ORIGINATOR     = 

OBJECT_NAME    = SL-16 R/B
OBJECT_ID      = 2000-006B
CENTER_NAME    = EARTH
REF_FRAME      = TEME
TIME_SYSTEM    = UTC
MEAN_ELEMENT_THEORY = SGP/SGP4

EPOCH          = 2025-12-12T02:55:13.929600
MEAN_MOTION    = 14.15810691
ECCENTRICITY   = .0018488
INCLINATION    = 71.0033
RA_OF_ASC_NODE = 281.9567
ARG_OF_PERICENTER = 309.4040
MEAN_ANOMALY   = 50.5445

EPHEMERIS_TYPE = 0
CLASSIFICATION_TYPE = U
NORAD_CAT_ID   = 26070
ELEMENT_SET_NO = 999
REV_AT_EPOCH   = 33616
BSTAR          = -.22502E-4
MEAN_MOTION_DOT = -.92E-6
MEAN_MOTION_DDOT = 0

CCSDS_OMM_VERS = 2.0
CREATION_DATE  = 
ORIGINATOR     = 

OBJECT_NAME    = TITAN 4B R/B
OBJECT_ID      = 2000-047B
CENTER_NAME    = EARTH
REF_FRAME      = TEME
TIME_SYSTEM    = UTC
MEAN_ELEMENT_THEORY = SGP/SGP4

EPOCH          = 2025-12-12T03:30:48.459744
MEAN_MOTION    = 15.08774009
ECCENTRICITY   = .0038949
INCLINATION    = 67.9900
RA_OF_ASC_NODE = 286.5216
ARG_OF_PERICENTER = 145.1269
MEAN_ANOMALY   = 215.2444

EPHEMERIS_TYPE = 0
CLASSIFICATION_TYPE = U
NORAD_CAT_ID   = 26474
ELEMENT_SET_NO = 999
REV_AT_EPOCH   = 37970
BSTAR          = .39134E-3
MEAN_MOTION_DOT = .6142E-4
MEAN_MOTION_DDOT = 0

CCSDS_OMM_VERS = 2.0
CREATION_DATE  = 
ORIGINATOR     = 

OBJECT_NAME    = ENVISAT
OBJECT_ID      = 2002-009A
CENTER_NAME    = EARTH
REF_FRAME      = TEME
TIME_SYSTEM    = UTC
MEAN_ELEMENT_THEORY = SGP/SGP4

EPOCH          = 2025-12-11T20:32:21.840576
MEAN_MOTION    = 14.38998777
ECCENTRICITY   = .00011415
INCLINATION    = 98.3598
RA_OF_ASC_NODE = 296.6187
ARG_OF_PERICENTER = 82.3266
MEAN_ANOMALY   = 304.1196

EPHEMERIS_TYPE = 0
CLASSIFICATION_TYPE = U
NORAD_CAT_ID   = 27386
ELEMENT_SET_NO = 999
REV_AT_EPOCH   = 24654
BSTAR          = .94650373E-4
MEAN_MOTION_DOT = .249E-5
MEAN_MOTION_DDOT = 0

