SL-16 R/B               
1 25400U 98043G   25345.88624377  .00000147  00000+0  80397-4 0  9991
2 25400  98.8123 293.6995 0008793 269.5518  90.4654 14.26025309426473
SL-16 R/B               
1 25407U 98045B   25346.12900287 -.00000189  00000+0 -71590-4 0  9998
2 25407  71.0118   5.7116 0006967 178.6612 181.4531 14.16175201414704
ISS (ZARYA)             
1 25544U 98067A   25345.89616116  .00014378  00000+0  26381-3 0  9992
2 25544  51.6307 146.6565 0003298 237.1442 122.9229 15.49521399542727
CZ-4B R/B               
1 25732U 99025C   25346.11265627  .00000129  00000+0  83489-4 0  9991
2 25732  98.6770  27.4067 0036262 235.8475 177.1852 14.18243385375754
OKEAN-O                 
1 25860U 99039A   25346.18116168  .00001239  00000+0  17012-3 0  9991
2 25860  97.9603  41.8876 0000826  97.1754 262.9551 14.80160086421449
SL-16 R/B               
1 25861U 99039B   25346.17678029  .00001010  00000+0  13526-3 0  9993
2 25861  98.0127  40.3279 0014876 176.4520 183.6801 14.81585442423904
DELTA 2 R/B             
1 25876U 99041E   25346.14717041  .00001876  00000+0  34115-3 0  9994
2 25876  51.7613 290.8113 0504710  90.0188 275.8556 14.11398419350669
HELIOS 1B               
1 25977U 99064A   25346.13070838  .00003573  00000+0  40267-3 0  9997
2 25977  98.1752 240.7782 0001728  43.6286 316.5065 14.87279074672247
TERRA                   
1 25994U 99068A   25346.11600817  .00000781  00000+0  16866-3 0  9990
2 25994  97.9750  37.8234 0003602  95.7408 316.4628 14.60900844382299
SL-16 R/B               
1 26070U 00006B   25346.12168900 -.00000092  00000+0 -22502-4 0  9995
2 26070  71.0033 281.9567 0018488 309.4040  50.5445 14.15810691336166
TITAN 4B R/B            
1 26474U 00047B   25346.14639421  .00006142  00000+0  39134-3 0  9999
2 26474  67.9900 286.5216 0038949 145.1269 215.2444 15.08774009379706
ENVISAT                 
1 27386U 02009A   25345.85580834  .00000249  00000+0  94650-4 0  9999
2 27386  98.3598 296.6187 0001141  82.3266 304.1196 14.38998777246541
